{
  "type": "FeatureCollection",
  "features": [
    {
      "type": "Feature",
      "properties": {
        "norad_id": 33887,
        "name": "IRIDIUM 33 DEB",
        "group": "iridium-33-debris",
        "lat": -53.63722345298396,
        "lon": -178.10213570934022,
        "alt_km": 772.777770816474,
        "timestamp": "2025-12-27T21:25:02.900755+00:00",
        "meta_object_name": "IRIDIUM 33 DEB",
        "meta_object_id": "1997-051BG",
        "meta_epoch": "2025-12-27T10:52:42.681792",
        "meta_mean_motion": 14.37234451,
        "meta_eccentricity": 0.0006059,
        "meta_inclination": 86.3044,
        "meta_ra_of_asc_node": 357.0509,
        "meta_arg_of_pericenter": 171.9966,
        "meta_mean_anomaly": 311.0616,
        "meta_ephemeris_type": 0,
        "meta_classification_type": "U",
        "meta_norad_cat_id": 33887,
        "meta_element_set_no": 999,
        "meta_rev_at_epoch": 88376,
        "meta_bstar": 0.00017502,
        "meta_mean_motion_dot": 5.41e-06,
        "meta_mean_motion_ddot": 0,
        "tle_line1": "1 33887U 97051BG  25361.45327178  .00000541  00000+0  17502-3 0  9992",
        "tle_line2": "2 33887  86.3044 357.0509 0006059 171.9966 311.0616 14.37234451883768"
      },
      "geometry": {
        "type": "Point",
        "coordinates": [
          -178.10213570934022,
          -53.63722345298396
        ]
      }
    },
    {
      "type": "Feature",
      "properties": {
        "norad_id": 33953,
        "name": "IRIDIUM 33 DEB",
        "group": "iridium-33-debris",
        "lat": -1.633391580442823,
        "lon": 47.09782529088691,
        "alt_km": 704.4911230355074,
        "timestamp": "2025-12-27T21:25:02.900766+00:00",
        "meta_object_name": "IRIDIUM 33 DEB",
        "meta_object_id": "1997-051BN",
        "meta_epoch": "2025-12-27T03:31:11.629632",
        "meta_mean_motion": 14.55459048,
        "meta_eccentricity": 0.00173983,
        "meta_inclination": 86.3835,
        "meta_ra_of_asc_node": 47.5249,
        "meta_arg_of_pericenter": 58.4623,
        "meta_mean_anomaly": 355.3188,
        "meta_ephemeris_type": 0,
        "meta_classification_type": "U",
        "meta_norad_cat_id": 33953,
        "meta_element_set_no": 999,
        "meta_rev_at_epoch": 88513,
        "meta_bstar": 0.0012769031,
        "meta_mean_motion_dot": 5.584e-05,
        "meta_mean_motion_ddot": 0,
        "tle_line1": "1 33953U 97051BN  25361.14666238  .00005584  00000+0  12769-2 0  9996",
        "tle_line2": "2 33953  86.3835  47.5249 0017398  58.4623 355.3188 14.55459048885138"
      },
      "geometry": {
        "type": "Point",
        "coordinates": [
          47.09782529088691,
          -1.633391580442823
        ]
      }
    },
    {
      "type": "Feature",
      "properties": {
        "norad_id": 33960,
        "name": "IRIDIUM 33 DEB",
        "group": "iridium-33-debris",
        "lat": 6.2530115826529045,
        "lon": -77.22142606334714,
        "alt_km": 608.5243529673116,
        "timestamp": "2025-12-27T21:25:02.900777+00:00",
        "meta_object_name": "IRIDIUM 33 DEB",
        "meta_object_id": "1997-051BV",
        "meta_epoch": "2025-12-27T05:54:29.266848",
        "meta_mean_motion": 14.85940294,
        "meta_eccentricity": 0.0006959,
        "meta_inclination": 86.2534,
        "meta_ra_of_asc_node": 282.6722,
        "meta_arg_of_pericenter": 37.6195,
        "meta_mean_anomaly": 114.1546,
        "meta_ephemeris_type": 0,
        "meta_classification_type": "U",
        "meta_norad_cat_id": 33960,
        "meta_element_set_no": 999,
        "meta_rev_at_epoch": 89082,
        "meta_bstar": 0.0033865,
        "meta_mean_motion_dot": 0.00029672,
        "meta_mean_motion_ddot": 0,
        "tle_line1": "1 33960U 97051BV  25361.24617207  .00029672  00000+0  33865-2 0  9991",
        "tle_line2": "2 33960  86.2534 282.6722 0006959  37.6195 114.1546 14.85940294890825"
      },
      "geometry": {
        "type": "Point",
        "coordinates": [
          -77.22142606334714,
          6.2530115826529045
        ]
      }
    },
    {
      "type": "Feature",
      "properties": {
        "norad_id": 33966,
        "name": "IRIDIUM 33 DEB",
        "group": "iridium-33-debris",
        "lat": 9.481201410870204,
        "lon": -141.08069962576934,
        "alt_km": 722.9605706809316,
        "timestamp": "2025-12-27T21:25:02.900788+00:00",
        "meta_object_name": "IRIDIUM 33 DEB",
        "meta_object_id": "1997-051CB",
        "meta_epoch": "2025-12-27T02:41:52.155744",
        "meta_mean_motion": 14.49650028,
        "meta_eccentricity": 0.00089494,
        "meta_inclination": 86.391,
        "meta_ra_of_asc_node": 39.858,
        "meta_arg_of_pericenter": 144.2354,
        "meta_mean_anomaly": 278.1615,
        "meta_ephemeris_type": 0,
        "meta_classification_type": "U",
        "meta_norad_cat_id": 33966,
        "meta_element_set_no": 999,
        "meta_rev_at_epoch": 88650,
        "meta_bstar": 0.00056095778,
        "meta_mean_motion_dot": 2.176e-05,
        "meta_mean_motion_ddot": 0,
        "tle_line1": "1 33966U 97051CB  25361.11240921  .00002176  00000+0  56096-3 0  9990",
        "tle_line2": "2 33966  86.3910  39.8580 0008949 144.2354 278.1615 14.49650028886508"
      },
      "geometry": {
        "type": "Point",
        "coordinates": [
          -141.08069962576934,
          9.481201410870204
        ]
      }
    },
    {
      "type": "Feature",
      "properties": {
        "norad_id": 34071,
        "name": "IRIDIUM 33 DEB",
        "group": "iridium-33-debris",
        "lat": -49.877374408330134,
        "lon": -164.40941227551141,
        "alt_km": 740.7963689503867,
        "timestamp": "2025-12-27T21:25:02.900799+00:00",
        "meta_object_name": "IRIDIUM 33 DEB",
        "meta_object_id": "1997-051CE",
        "meta_epoch": "2025-12-27T12:04:35.885568",
        "meta_mean_motion": 14.49531479,
        "meta_eccentricity": 0.0009763,
        "meta_inclination": 86.3454,
        "meta_ra_of_asc_node": 11.4103,
        "meta_arg_of_pericenter": 68.1287,
        "meta_mean_anomaly": 292.0955,
        "meta_ephemeris_type": 0,
        "meta_classification_type": "U",
        "meta_norad_cat_id": 34071,
        "meta_element_set_no": 999,
        "meta_rev_at_epoch": 88548,
        "meta_bstar": 0.00069971,
        "meta_mean_motion_dot": 2.703e-05,
        "meta_mean_motion_ddot": 0,
        "tle_line1": "1 34071U 97051CE  25361.50319312  .00002703  00000+0  69971-3 0  9994",
        "tle_line2": "2 34071  86.3454  11.4103 0009763  68.1287 292.0955 14.49531479885486"
      },
      "geometry": {
        "type": "Point",
        "coordinates": [
          -164.40941227551141,
          -49.877374408330134
        ]
      }
    },
    {
      "type": "Feature",
      "properties": {
        "norad_id": 34077,
        "name": "IRIDIUM 33 DEB",
        "group": "iridium-33-debris",
        "lat": -12.669511195080476,
        "lon": -134.35489168903646,
        "alt_km": 687.0361356745916,
        "timestamp": "2025-12-27T21:25:02.900810+00:00",
        "meta_object_name": "IRIDIUM 33 DEB",
        "meta_object_id": "1997-051CL",
        "meta_epoch": "2025-12-27T02:47:01.299264",
        "meta_mean_motion": 14.65029406,
        "meta_eccentricity": 0.00085356,
        "meta_inclination": 86.3849,
        "meta_ra_of_asc_node": 45.1729,
        "meta_arg_of_pericenter": 351.6698,
        "meta_mean_anomaly": 68.7285,
        "meta_ephemeris_type": 0,
        "meta_classification_type": "U",
        "meta_norad_cat_id": 34077,
        "meta_element_set_no": 999,
        "meta_rev_at_epoch": 88543,
        "meta_bstar": 0.0019034333,
        "meta_mean_motion_dot": 0.00010235,
        "meta_mean_motion_ddot": 0,
        "tle_line1": "1 34077U 97051CL  25361.11598726  .00010235  00000+0  19034-2 0  9998",
        "tle_line2": "2 34077  86.3849  45.1729 0008535 351.6698  68.7285 14.65029406885439"
      },
      "geometry": {
        "type": "Point",
        "coordinates": [
          -134.35489168903646,
          -12.669511195080476
        ]
      }
    },
    {
      "type": "Feature",
      "properties": {
        "norad_id": 34079,
        "name": "IRIDIUM 33 DEB",
        "group": "iridium-33-debris",
        "lat": 51.52347240523474,
        "lon": 177.1968964551132,
        "alt_km": 614.7859704226394,
        "timestamp": "2025-12-27T21:25:02.900821+00:00",
        "meta_object_name": "IRIDIUM 33 DEB",
        "meta_object_id": "1997-051CN",
        "meta_epoch": "2025-12-27T06:20:21.474816",
        "meta_mean_motion": 14.83933448,
        "meta_eccentricity": 0.0003689,
        "meta_inclination": 86.3777,
        "meta_ra_of_asc_node": 2.0544,
        "meta_arg_of_pericenter": 310.6611,
        "meta_mean_anomaly": 63.5436,
        "meta_ephemeris_type": 0,
        "meta_classification_type": "U",
        "meta_norad_cat_id": 34079,
        "meta_element_set_no": 999,
        "meta_rev_at_epoch": 89193,
        "meta_bstar": 0.00218,
        "meta_mean_motion_dot": 0.00018168,
        "meta_mean_motion_ddot": 0,
        "tle_line1": "1 34079U 97051CN  25361.26413744  .00018168  00000+0  21800-2 0  9999",
        "tle_line2": "2 34079  86.3777   2.0544 0003689 310.6611  63.5436 14.83933448891936"
      },
      "geometry": {
        "type": "Point",
        "coordinates": [
          177.1968964551132,
          51.52347240523474
        ]
      }
    }
  ]
}